CCSDS_OMM_VERS = 2.0
CREATION_DATE  = 
ORIGINATOR     = 

OBJECT_NAME    = CZ-2C R/B
OBJECT_ID      = 2022-132E
CENTER_NAME    = EARTH
REF_FRAME      = TEME
TIME_SYSTEM    = UTC
MEAN_ELEMENT_THEORY = SGP/SGP4

EPOCH          = 2026-02-04T11:20:04.012224
MEAN_MOTION    = 15.58968072
ECCENTRICITY   = .001756
INCLINATION    = 97.2956
RA_OF_ASC_NODE = 37.8597
ARG_OF_PERICENTER = 205.8539
MEAN_ANOMALY   = 154.1841

EPHEMERIS_TYPE = 0
CLASSIFICATION_TYPE = U
NORAD_CAT_ID   = 54039
ELEMENT_SET_NO = 999
REV_AT_EPOCH   = 18519
BSTAR          = .49437E-3
MEAN_MOTION_DOT = .38689E-3
MEAN_MOTION_DDOT = 0

CCSDS_OMM_VERS = 2.0
CREATION_DATE  = 
ORIGINATOR     = 

OBJECT_NAME    = GSLV R/B
OBJECT_ID      = 2022-138AN
CENTER_NAME    = EARTH
REF_FRAME      = TEME
TIME_SYSTEM    = UTC
MEAN_ELEMENT_THEORY = SGP/SGP4

EPOCH          = 2026-02-04T10:10:15.624480
MEAN_MOTION    = 14.96513904
ECCENTRICITY   = .0019329
INCLINATION    = 87.3863
RA_OF_ASC_NODE = 177.4942
ARG_OF_PERICENTER = 272.7972
MEAN_ANOMALY   = 87.1047

EPHEMERIS_TYPE = 0
CLASSIFICATION_TYPE = U
NORAD_CAT_ID   = 54149
ELEMENT_SET_NO = 999
REV_AT_EPOCH   = 17895
BSTAR          = .32205E-3
MEAN_MOTION_DOT = .3699E-4
MEAN_MOTION_DDOT = 0

CCSDS_OMM_VERS = 2.0
CREATION_DATE  = 
ORIGINATOR     = 

OBJECT_NAME    = XRISM
OBJECT_ID      = 2023-137A
CENTER_NAME    = EARTH
REF_FRAME      = TEME
TIME_SYSTEM    = UTC
MEAN_ELEMENT_THEORY = SGP/SGP4

EPOCH          = 2026-02-04T06:53:28.566816
MEAN_MOTION    = 15.11070694
ECCENTRICITY   = .000799
INCLINATION    = 31.0020
RA_OF_ASC_NODE = 139.6374
ARG_OF_PERICENTER = 64.7958
MEAN_ANOMALY   = 295.3508

EPHEMERIS_TYPE = 0
CLASSIFICATION_TYPE = U
NORAD_CAT_ID   = 57800
ELEMENT_SET_NO = 999
REV_AT_EPOCH   = 13273
BSTAR          = .41053E-3
MEAN_MOTION_DOT = .7142E-4
MEAN_MOTION_DDOT = 0

CCSDS_OMM_VERS = 2.0
CREATION_DATE  = 
ORIGINATOR     = 

OBJECT_NAME    = ACS3
OBJECT_ID      = 2024-077B
CENTER_NAME    = EARTH
REF_FRAME      = TEME
TIME_SYSTEM    = UTC
MEAN_ELEMENT_THEORY = SGP/SGP4

EPOCH          = 2026-02-04T10:20:12.557760
MEAN_MOTION    = 13.88211962
ECCENTRICITY   = .0045447
INCLINATION    = 97.2258
RA_OF_ASC_NODE = 344.0181
ARG_OF_PERICENTER = 182.5649
MEAN_ANOMALY   = 177.5288

EPHEMERIS_TYPE = 0
CLASSIFICATION_TYPE = U
NORAD_CAT_ID   = 59588
ELEMENT_SET_NO = 999
REV_AT_EPOCH   = 8958
BSTAR          = .16613E-1
MEAN_MOTION_DOT = .20037E-3
MEAN_MOTION_DDOT = 0

CCSDS_OMM_VERS = 2.0
CREATION_DATE  = 
ORIGINATOR     = 

OBJECT_NAME    = SZ-21 MODULE
OBJECT_ID      = 2025-246C
CENTER_NAME    = EARTH
REF_FRAME      = TEME
TIME_SYSTEM    = UTC
MEAN_ELEMENT_THEORY = SGP/SGP4

EPOCH          = 2026-02-04T10:16:24.746880
MEAN_MOTION    = 15.66025565
ECCENTRICITY   = .0003176
INCLINATION    = 41.4759
RA_OF_ASC_NODE = 47.7144
ARG_OF_PERICENTER = 274.1114
MEAN_ANOMALY   = 85.9364

EPHEMERIS_TYPE = 0
CLASSIFICATION_TYPE = U
NORAD_CAT_ID   = 66515
ELEMENT_SET_NO = 999
REV_AT_EPOCH   = 1285
BSTAR          = .32027E-3
MEAN_MOTION_DOT = .33533E-3
MEAN_MOTION_DDOT = 0

