CZ-2C R/B               
1 54039U 22132E   26035.47226866  .00038689  00000+0  49437-3 0  9991
2 54039  97.2956  37.8597 0017560 205.8539 154.1841 15.58968072185190
GSLV R/B                
1 54149U 22138AN  26035.42379195  .00003699  00000+0  32205-3 0  9996
2 54149  87.3863 177.4942 0019329 272.7972  87.1047 14.96513904178953
XRISM                   
1 57800U 23137A   26035.28713619  .00007142  00000+0  41053-3 0  9998
2 57800  31.0020 139.6374 0007990  64.7958 295.3508 15.11070694132737
ACS3                    
1 59588U 24077B   26035.43070090  .00020037  00000+0  16613-1 0  9993
2 59588  97.2258 344.0181 0045447 182.5649 177.5288 13.88211962 89589
SZ-21 MODULE            
1 66515U 25246C   26035.42806420  .00033533  00000+0  32027-3 0  9997
2 66515  41.4759  47.7144 0003176 274.1114  85.9364 15.66025565 12851
